STARLINK-30514          
1 58028U 23156A   26068.45955132  .00005738  00000+0  20582-3 0  9998
2 58028  53.1594  79.2374 0001056 100.7224 259.3895 15.30179861136284
TOMORROW-S1             
1 60479U 24149M   26068.72470524  .00008620  00000+0  28856-3 0  9996
2 60479  97.3791 149.6044 0001819 207.2040 152.9106 15.31198362 86867
